TEVEL2-8                
1 63239U 25052AF  26068.66815442  .00019130  00000+0  69304-3 0  9993
2 63239  97.4055 324.2923 0008031 124.9191 235.2804 15.28392908 54807
STARLINK-33781          
1 63826U 25092Y   26067.65991243  .00029123  00000+0  10640-2 0  9992
2 63826  43.0014 178.6611 0001273 244.9991 115.0728 15.27570338 48502
